[
  {
    "name": "ONEWEB-0053",
    "noradId": "45157",
    "line1": "1 45157U 20008AC  26164.91719918 -.00000209  00000+0 -63491-3 0  9994",
    "line2": "2 45157  87.8836  36.9360 0002160  72.3887 287.7476 13.10375715307481"
  },
  {
    "name": "ONEWEB-0054",
    "noradId": "45158",
    "line1": "1 45158U 20008AD  26164.87570914  .00000429  00000+0  11919-2 0  9990",
    "line2": "2 45158  87.8842  36.9264 0001865  83.2212 276.9127 13.10370112307597"
  },
  {
    "name": "ONEWEB-0056",
    "noradId": "45159",
    "line1": "1 45159U 20008AE  26164.92372441  .00000164  00000+0  43418-3 0  9998",
    "line2": "2 45159  87.8845  36.9109 0002009  89.4988 270.6370 13.10378184307754"
  },
  {
    "name": "ONEWEB-0057",
    "noradId": "45160",
    "line1": "1 45160U 20008AF  26164.94059065  .00000733  00000+0  20636-2 0  9994",
    "line2": "2 45160  87.8838  36.9200 0002196  73.7390 286.3979 13.10372944307926"
  },
  {
    "name": "ONEWEB-0058",
    "noradId": "45161",
    "line1": "1 45161U 20008AG  26164.92730610  .00000305  00000+0  83690-3 0  9990",
    "line2": "2 45161  87.8834  36.9287 0001593  81.9728 278.1580 13.10375733307997"
  },
  {
    "name": "ONEWEB-0059",
    "noradId": "45162",
    "line1": "1 45162U 20008AH  26164.92398374  .00000212  00000+0  56986-3 0  9993",
    "line2": "2 45162  87.8835  36.9283 0001729  77.0354 283.0967 13.10376642307890"
  },
  {
    "name": "ONEWEB-0062",
    "noradId": "45163",
    "line1": "1 45163U 20008AJ  26164.71788171  .00000564  00000+0  15793-2 0  9999",
    "line2": "2 45163  87.8839  36.9561 0001440  91.5899 268.5393 13.10370642307737"
  },
  {
    "name": "ONEWEB-0065",
    "noradId": "45164",
    "line1": "1 45164U 20008AK  26164.90377263 -.00000622  00000+0 -18195-2 0  9993",
    "line2": "2 45164  87.8840  36.9271 0002157  80.8764 279.2608 13.10372576307451"
  },
  {
    "name": "ONEWEB-0066",
    "noradId": "45424",
    "line1": "1 45424U 20020A   26164.86591848 -.00000471  00000+0 -13636-2 0  9995",
    "line2": "2 45424  87.8890  21.7327 0001715  79.7458 280.3864 13.11416535302249"
  },
  {
    "name": "ONEWEB-0067",
    "noradId": "45425",
    "line1": "1 45425U 20020B   26164.90384063  .00000540  00000+0  14870-2 0  9996",
    "line2": "2 45425  87.8910  21.6461 0001963  82.1441 277.9909 13.11423127302300"
  },
  {
    "name": "ONEWEB-0080",
    "noradId": "45426",
    "line1": "1 45426U 20020C   26164.90337958  .00000563  00000+0  15534-2 0  9991",
    "line2": "2 45426  87.8900  21.7209 0001572  92.2470 267.8838 13.11416357302273"
  },
  {
    "name": "ONEWEB-0090",
    "noradId": "45427",
    "line1": "1 45427U 20020D   26164.85588711 -.00000482  00000+0 -13948-2 0  9990",
    "line2": "2 45427  87.8899  21.7346 0001772  87.1951 272.9380 13.11415220302235"
  },
  {
    "name": "ONEWEB-0061",
    "noradId": "45428",
    "line1": "1 45428U 20020E   26164.88783437  .00000366  00000+0  99790-3 0  9995",
    "line2": "2 45428  87.8897  21.7135 0001761  84.4376 275.6953 13.11419804302192"
  },
  {
    "name": "ONEWEB-0081",
    "noradId": "45429",
    "line1": "1 45429U 20020F   26164.64042116 -.00000516  00000+0 -14916-2 0  9997",
    "line2": "2 45429  87.8895  21.7734 0001856  78.5890 281.5447 13.11418397302275"
  },
  {
    "name": "ONEWEB-0069",
    "noradId": "45430",
    "line1": "1 45430U 20020G   26164.64225104 -.00000205  00000+0 -61362-3 0  9992",
    "line2": "2 45430  87.8896  21.7756 0001846  82.2393 277.8945 13.11417602302203"
  },
  {
    "name": "ONEWEB-0031",
    "noradId": "45431",
    "line1": "1 45431U 20020H   26164.83033325  .00000496  00000+0  13628-2 0  9997",
    "line2": "2 45431  87.8886  21.7433 0001667  89.6700 270.4619 13.11416650302219"
  },
  {
    "name": "ONEWEB-0027",
    "noradId": "45432",
    "line1": "1 45432U 20020J   26164.84367244  .00026767  00000+0  69668-1 0  9992",
    "line2": "2 45432  87.9136   6.5298 0001934  93.9916 266.1436 13.16703087305910"
  },
  {
    "name": "ONEWEB-0064",
    "noradId": "45433",
    "line1": "1 45433U 20020K   26164.82864016  .00000496  00000+0  13628-2 0  9997",
    "line2": "2 45433  87.8890  21.7354 0001768  90.9456 269.1874 13.11415033302248"
  },
  {
    "name": "ONEWEB-0018",
    "noradId": "45434",
    "line1": "1 45434U 20020L   26164.86071930 -.00003052  00000+0 -86473-2 0  9998",
    "line2": "2 45434  87.8891  21.7281 0001565  77.3838 282.7465 13.11433792302190"
  },
  {
    "name": "ONEWEB-0083",
    "noradId": "45435",
    "line1": "1 45435U 20020M   26164.85081209 -.00000370  00000+0 -10808-2 0  9997",
    "line2": "2 45435  87.8896  21.7238 0001743  86.3589 273.7738 13.11415621302238"
  },
  {
    "name": "ONEWEB-0095",
    "noradId": "45436",
    "line1": "1 45436U 20020N   26164.84234973 -.00000022  00000+0 -98587-4 0  9991",
    "line2": "2 45436  87.8896  21.7341 0002437  95.3956 264.7450 13.11419483302234"
  },
  {
    "name": "ONEWEB-0092",
    "noradId": "45437",
    "line1": "1 45437U 20020P   26164.64385262 -.00020022  00000+0 -56553-1 0  9994",
    "line2": "2 45437  87.8898  21.7655 0002029  82.7902 277.3457 13.11535717302329"
  },
  {
    "name": "ONEWEB-0085",
    "noradId": "45438",
    "line1": "1 45438U 20020Q   26164.85053180 -.00000353  00000+0 -10327-2 0  9994",
    "line2": "2 45438  87.8890  21.7308 0001810  85.7619 274.3716 13.11414836302235"
  },
  {
    "name": "ONEWEB-0096",
    "noradId": "45439",
    "line1": "1 45439U 20020R   26164.85237293 -.00000318  00000+0 -93318-3 0  9997",
    "line2": "2 45439  87.8898  21.7263 0001883  88.0148 272.1195 13.11421380302225"
  },
  {
    "name": "ONEWEB-0037",
    "noradId": "45440",
    "line1": "1 45440U 20020S   26164.88691912  .00000293  00000+0  78549-3 0  9993",
    "line2": "2 45440  87.8908  21.6932 0001891  85.9454 274.1891 13.11913811302260"
  },
  {
    "name": "ONEWEB-0042",
    "noradId": "45441",
    "line1": "1 45441U 20020T   26164.84206101  .00000241  00000+0  64408-3 0  9994",
    "line2": "2 45441  87.8909  21.7246 0001916  82.4059 277.7287 13.11411869302222"
  },
  {
    "name": "ONEWEB-0098",
    "noradId": "45442",
    "line1": "1 45442U 20020U   26164.83796194  .00000237  00000+0  63180-3 0  9991",
    "line2": "2 45442  87.8894  21.7348 0001736  86.5168 273.6159 13.11415959302200"
  },
  {
    "name": "ONEWEB-0055",
    "noradId": "45443",
    "line1": "1 45443U 20020V   26164.89294535  .00000539  00000+0  14863-2 0  9998",
    "line2": "2 45443  87.8897  21.7228 0001755  86.9483 273.1845 13.11417870302184"
  },
  {
    "name": "ONEWEB-0093",
    "noradId": "45444",
    "line1": "1 45444U 20020W   26164.87284023 -.00000262  00000+0 -77427-3 0  9999",
    "line2": "2 45444  87.8897  21.7198 0001865  73.4145 286.7188 13.11418072302241"
  },
  {
    "name": "ONEWEB-0029",
    "noradId": "45445",
    "line1": "1 45445U 20020X   26164.89998244  .00000480  00000+0  13172-2 0  9995",
    "line2": "2 45445  87.8884  21.7234 0001811  79.6234 280.5098 13.11419776302229"
  }
]