OBJECT_NAME,OBJECT_ID,EPOCH,MEAN_MOTION,ECCENTRICITY,INCLINATION,RA_OF_ASC_NODE,ARG_OF_PERICENTER,MEAN_ANOMALY,EPHEMERIS_TYPE,CLASSIFICATION_TYPE,NORAD_CAT_ID,ELEMENT_SET_NO,REV_AT_EPOCH,BSTAR,MEAN_MOTION_DOT,MEAN_MOTION_DDOT
ONEWEB-0053,2020-008AC,2026-06-13T22:00:46.009152,13.10375715,.00021607,87.8836,36.9360,72.3887,287.7476,0,U,45157,999,30748,-.63491108E-3,-.209E-5,0
ONEWEB-0054,2020-008AD,2026-06-13T21:01:01.269696,13.10370112,.00018656,87.8842,36.9264,83.2212,276.9127,0,U,45158,999,30759,.11918935E-2,.429E-5,0
ONEWEB-0056,2020-008AE,2026-06-13T22:10:09.789024,13.10378184,.00020092,87.8845,36.9109,89.4988,270.6370,0,U,45159,999,30775,.43417869E-3,.164E-5,0
ONEWEB-0057,2020-008AF,2026-06-13T22:34:27.032160,13.10372944,.00021966,87.8838,36.9200,73.7390,286.3979,0,U,45160,999,30792,.20636049E-2,.733E-5,0
ONEWEB-0058,2020-008AG,2026-06-13T22:15:19.247040,13.10375733,.00015938,87.8834,36.9287,81.9728,278.1580,0,U,45161,999,30799,.83690239E-3,.305E-5,0
ONEWEB-0059,2020-008AH,2026-06-13T22:10:32.195136,13.10376642,.00017291,87.8835,36.9283,77.0354,283.0967,0,U,45162,999,30789,.56986012E-3,.212E-5,0
ONEWEB-0062,2020-008AJ,2026-06-13T17:13:44.979744,13.10370642,.00014405,87.8839,36.9561,91.5899,268.5393,0,U,45163,999,30773,.15792578E-2,.564E-5,0
ONEWEB-0065,2020-008AK,2026-06-13T21:41:25.955232,13.10372576,.00021577,87.8840,36.9271,80.8764,279.2608,0,U,45164,999,30745,-.18194567E-2,-.622E-5,0
ONEWEB-0066,2020-020A,2026-06-13T20:46:55.356672,13.11416535,.0001715,87.8890,21.7327,79.7458,280.3864,0,U,45424,999,30224,-.13636199E-2,-.471E-5,0
ONEWEB-0067,2020-020B,2026-06-13T21:41:31.830432,13.11423127,.0001963,87.8910,21.6461,82.1441,277.9909,0,U,45425,999,30230,.14870373E-2,.54E-5,0
ONEWEB-0080,2020-020C,2026-06-13T21:40:51.995712,13.11416357,.00015725,87.8900,21.7209,92.2470,267.8838,0,U,45426,999,30227,.1553428E-2,.563E-5,0
ONEWEB-0090,2020-020D,2026-06-13T20:32:28.646304,13.11415220,.00017723,87.8899,21.7346,87.1951,272.9380,0,U,45427,999,30223,-.13948233E-2,-.482E-5,0
ONEWEB-0061,2020-020E,2026-06-13T21:18:28.889568,13.11419804,.00017613,87.8897,21.7135,84.4376,275.6953,0,U,45428,999,30219,.99789808E-3,.366E-5,0
ONEWEB-0081,2020-020F,2026-06-13T15:22:12.388224,13.11418397,.00018568,87.8895,21.7734,78.5890,281.5447,0,U,45429,999,30227,-.14916146E-2,-.516E-5,0
ONEWEB-0069,2020-020G,2026-06-13T15:24:50.489856,13.11417602,.00018461,87.8896,21.7756,82.2393,277.8945,0,U,45430,999,30220,-.61361844E-3,-.205E-5,0
ONEWEB-0031,2020-020H,2026-06-13T19:55:40.792800,13.11416650,.00016676,87.8886,21.7433,89.6700,270.4619,0,U,45431,999,30221,.13627635E-2,.496E-5,0
ONEWEB-0027,2020-020J,2026-06-13T20:14:53.298816,13.16703087,.00019345,87.9136,6.5298,93.9916,266.1436,0,U,45432,999,30591,.69668357E-1,.26767E-3,0
ONEWEB-0064,2020-020K,2026-06-13T19:53:14.509824,13.11415033,.00017688,87.8890,21.7354,90.9456,269.1874,0,U,45433,999,30224,.13627961E-2,.496E-5,0
ONEWEB-0018,2020-020L,2026-06-13T20:39:26.147520,13.11433792,.00015651,87.8891,21.7281,77.3838,282.7465,0,U,45434,999,30219,-.86472862E-2,-.3052E-4,0
ONEWEB-0083,2020-020M,2026-06-13T20:25:10.164576,13.11415621,.00017439,87.8896,21.7238,86.3589,273.7738,0,U,45435,999,30223,-.10807693E-2,-.37E-5,0
ONEWEB-0095,2020-020N,2026-06-13T20:12:59.016672,13.11419483,.00024371,87.8896,21.7341,95.3956,264.7450,0,U,45436,999,30223,-.98586818E-4,-.22E-6,0
ONEWEB-0092,2020-020P,2026-06-13T15:27:08.866368,13.11535717,.0002029,87.8898,21.7655,82.7902,277.3457,0,U,45437,999,30232,-.56553327E-1,-.20022E-3,0
ONEWEB-0085,2020-020Q,2026-06-13T20:24:45.947520,13.11414836,.00018102,87.8890,21.7308,85.7619,274.3716,0,U,45438,999,30223,-.10326764E-2,-.353E-5,0
ONEWEB-0096,2020-020R,2026-06-13T20:27:25.021152,13.11421380,.00018836,87.8898,21.7263,88.0148,272.1195,0,U,45439,999,30222,-.93317692E-3,-.318E-5,0
ONEWEB-0037,2020-020S,2026-06-13T21:17:09.811968,13.11913811,.00018919,87.8908,21.6932,85.9454,274.1891,0,U,45440,999,30226,.78549059E-3,.293E-5,0
ONEWEB-0042,2020-020T,2026-06-13T20:12:34.071264,13.11411869,.00019165,87.8909,21.7246,82.4059,277.7287,0,U,45441,999,30222,.644075E-3,.241E-5,0
ONEWEB-0098,2020-020U,2026-06-13T20:06:39.911616,13.11415959,.00017365,87.8894,21.7348,86.5168,273.6159,0,U,45442,999,30220,.63179952E-3,.237E-5,0
ONEWEB-0055,2020-020V,2026-06-13T21:25:50.478240,13.11417870,.00017553,87.8897,21.7228,86.9483,273.1845,0,U,45443,999,30218,.14862964E-2,.539E-5,0
ONEWEB-0093,2020-020W,2026-06-13T20:56:53.395872,13.11418072,.00018659,87.8897,21.7198,73.4145,286.7188,0,U,45444,999,30224,-.77426896E-3,-.262E-5,0
ONEWEB-0029,2020-020X,2026-06-13T21:35:58.482816,13.11419776,.00018112,87.8884,21.7234,79.6234,280.5098,0,U,45445,999,30222,.13172246E-2,.48E-5,0
